IXPE                    
1 49954U 21121A   24239.58334491  .00012045  00000+0  88938-3 0  9995
2 49954   0.2297 230.6534 0009815 244.9785 129.7591 14.99375070  5754
